STARLINK-31817          
1 59731U 24090B   26068.30078418  .00000038  00000+0  10898-4 0  9993
2 59731  43.0005 185.4383 0000381 165.4918 194.5945 15.27580929103387
FLOCK 4G-4              
1 62659U 25009BC  26068.75333732  .00011866  00000+0  45294-3 0  9997
2 62659  97.3994 150.7963 0001598 343.4316  16.6870 15.26803327121323
